[{"OBJECT_NAME":"JILIN-1 GAOFEN 03D50","OBJECT_ID":"2022-167J","EPOCH":"2026-03-09T22:35:59.947584","MEAN_MOTION":15.32279726,"ECCENTRICITY":0.00065764,"INCLINATION":97.6731,"RA_OF_ASC_NODE":232.9458,"ARG_OF_PERICENTER":101.1473,"MEAN_ANOMALY":259.0507,"EPHEMERIS_TYPE":0,"CLASSIFICATION_TYPE":"U","NORAD_CAT_ID":54690,"ELEMENT_SET_NO":999,"REV_AT_EPOCH":18014,"BSTAR":0.00049467973,"MEAN_MOTION_DOT":0.00015359,"MEAN_MOTION_DDOT":0},{"OBJECT_NAME":"STARLINK-35606","OBJECT_ID":"2025-240AB","EPOCH":"2026-03-09T09:12:20.711520","MEAN_MOTION":15.30206725,"ECCENTRICITY":7.836e-5,"INCLINATION":53.1604,"RA_OF_ASC_NODE":64.0717,"ARG_OF_PERICENTER":99.4375,"MEAN_ANOMALY":260.6714,"EPHEMERIS_TYPE":0,"CLASSIFICATION_TYPE":"U","NORAD_CAT_ID":66171,"ELEMENT_SET_NO":999,"REV_AT_EPOCH":2194,"BSTAR":0.00081215723,"MEAN_MOTION_DOT":0.00023777,"MEAN_MOTION_DDOT":0}]
